1 29155U 06018A   12261.38305769 -.00000262  00000-0  10000-3 0  2235
2 29155 000.0742 147.9072 0003328 344.5342 287.5940 01.00269294 23179